STARLINK-5690
1 55480U 23015AH  26061.16668981  .00040714  00000+0  27600-2 0  9995
2 55480  43.0006  19.7872 0001819 252.2876  55.9391 15.05803454  5767
